{
"type": "FeatureCollection",
"features": [
{ "type": "Feature", "properties": { "AREA": 0.0, "PERIMETER": 0.0, "RES1_4M_": 1.0, "RES1_4M_ID": 61.0, "GBCODE": 31010, "NAME": "北京", "ADCODE93": 110100, "ADCODE99": 110100, "ADCLASS": 1, "PINYIN": "Beijing" }, "geometry": { "type": "Point", "coordinates": [ 116.380943298339844, 39.923614501953125 ] } },
{ "type": "Feature", "properties": { "AREA": 0.0, "PERIMETER": 0.0, "RES1_4M_": 2.0, "RES1_4M_ID": 70.0, "GBCODE": 31020, "NAME": "天津", "ADCODE93": 120100, "ADCODE99": 120100, "ADCLASS": 2, "PINYIN": "Tianjin" }, "geometry": { "type": "Point", "coordinates": [ 117.203498840332031, 39.131118774414062 ] } },
{ "type": "Feature", "properties": { "AREA": 0.0, "PERIMETER": 0.0, "RES1_4M_": 3.0, "RES1_4M_ID": 121.0, "GBCODE": 31020, "NAME": "石家庄", "ADCODE93": 130101, "ADCODE99": 130101, "ADCLASS": 2, "PINYIN": "Shijiazhuang" }, "geometry": { "type": "Point", "coordinates": [ 114.489776611328125, 38.045127868652344 ] } },
{ "type": "Feature", "properties": { "AREA": 0.0, "PERIMETER": 0.0, "RES1_4M_": 4.0, "RES1_4M_ID": 220.0, "GBCODE": 31020, "NAME": "太原", "ADCODE93": 140101, "ADCODE99": 140101, "ADCLASS": 2, "PINYIN": "Taiyuan" }, "geometry": { "type": "Point", "coordinates": [ 112.569351196289062, 37.871112823486328 ] } },
{ "type": "Feature", "properties": { "AREA": 0.0, "PERIMETER": 0.0, "RES1_4M_": 5.0, "RES1_4M_ID": 322.0, "GBCODE": 31020, "NAME": "呼和浩特", "ADCODE93": 150101, "ADCODE99": 150101, "ADCLASS": 2, "PINYIN": "Huhehaote" }, "geometry": { "type": "Point", "coordinates": [ 111.663299560546875, 40.820941925048828 ] } },
{ "type": "Feature", "properties": { "AREA": 0.0, "PERIMETER": 0.0, "RES1_4M_": 6.0, "RES1_4M_ID": 412.0, "GBCODE": 31020, "NAME": "沈阳", "ADCODE93": 210101, "ADCODE99": 210101, "ADCLASS": 2, "PINYIN": "Shenyang" }, "geometry": { "type": "Point", "coordinates": [ 123.41168212890625, 41.796615600585938 ] } },
{ "type": "Feature", "properties": { "AREA": 0.0, "PERIMETER": 0.0, "RES1_4M_": 7.0, "RES1_4M_ID": 465.0, "GBCODE": 31020, "NAME": "长春", "ADCODE93": 220101, "ADCODE99": 220101, "ADCLASS": 2, "PINYIN": "Changchun" }, "geometry": { "type": "Point", "coordinates": [ 125.3154296875, 43.892562866210938 ] } },
{ "type": "Feature", "properties": { "AREA": 0.0, "PERIMETER": 0.0, "RES1_4M_": 8.0, "RES1_4M_ID": 508.0, "GBCODE": 31020, "NAME": "哈尔滨", "ADCODE93": 230101, "ADCODE99": 230101, "ADCLASS": 2, "PINYIN": "Haerbin" }, "geometry": { "type": "Point", "coordinates": [ 126.643341064453125, 45.741493225097656 ] } },
{ "type": "Feature", "properties": { "AREA": 0.0, "PERIMETER": 0.0, "RES1_4M_": 9.0, "RES1_4M_ID": 584.0, "GBCODE": 31020, "NAME": "上海", "ADCODE93": 310100, "ADCODE99": 310100, "ADCLASS": 2, "PINYIN": "Shanghai" }, "geometry": { "type": "Point", "coordinates": [ 121.469268798828125, 31.238176345825195 ] } },
{ "type": "Feature", "properties": { "AREA": 0.0, "PERIMETER": 0.0, "RES1_4M_": 10.0, "RES1_4M_ID": 594.0, "GBCODE": 31020, "NAME": "南京", "ADCODE93": 320101, "ADCODE99": 320101, "ADCLASS": 2, "PINYIN": "Nanjing" }, "geometry": { "type": "Point", "coordinates": [ 118.772781372070312, 32.047615051269531 ] } },
{ "type": "Feature", "properties": { "AREA": 0.0, "PERIMETER": 0.0, "RES1_4M_": 11.0, "RES1_4M_ID": 668.0, "GBCODE": 31020, "NAME": "杭州", "ADCODE93": 330101, "ADCODE99": 330101, "ADCLASS": 2, "PINYIN": "Hangzhou" }, "geometry": { "type": "Point", "coordinates": [ 120.159248352050781, 30.265995025634766 ] } },
{ "type": "Feature", "properties": { "AREA": 0.0, "PERIMETER": 0.0, "RES1_4M_": 12.0, "RES1_4M_ID": 741.0, "GBCODE": 31020, "NAME": "合肥", "ADCODE93": 340101, "ADCODE99": 340101, "ADCLASS": 2, "PINYIN": "Hefei" }, "geometry": { "type": "Point", "coordinates": [ 117.275703430175781, 31.863254547119141 ] } },
{ "type": "Feature", "properties": { "AREA": 0.0, "PERIMETER": 0.0, "RES1_4M_": 13.0, "RES1_4M_ID": 823.0, "GBCODE": 31020, "NAME": "福州", "ADCODE93": 350101, "ADCODE99": 350101, "ADCLASS": 2, "PINYIN": "Fuzhou" }, "geometry": { "type": "Point", "coordinates": [ 119.297813415527344, 26.078590393066406 ] } },
{ "type": "Feature", "properties": { "AREA": 0.0, "PERIMETER": 0.0, "RES1_4M_": 14.0, "RES1_4M_ID": 898.0, "GBCODE": 31020, "NAME": "南昌", "ADCODE93": 360101, "ADCODE99": 360101, "ADCLASS": 2, "PINYIN": "Nanchang" }, "geometry": { "type": "Point", "coordinates": [ 115.899917602539062, 28.675991058349609 ] } },
{ "type": "Feature", "properties": { "AREA": 0.0, "PERIMETER": 0.0, "RES1_4M_": 15.0, "RES1_4M_ID": 981.0, "GBCODE": 31020, "NAME": "济南", "ADCODE93": 370101, "ADCODE99": 370101, "ADCLASS": 2, "PINYIN": "Jinan" }, "geometry": { "type": "Point", "coordinates": [ 117.005599975585938, 36.667072296142578 ] } },
{ "type": "Feature", "properties": { "AREA": 0.0, "PERIMETER": 0.0, "RES1_4M_": 16.0, "RES1_4M_ID": 1084.0, "GBCODE": 31020, "NAME": "郑州", "ADCODE93": 410101, "ADCODE99": 410101, "ADCLASS": 2, "PINYIN": "Zhengzhou" }, "geometry": { "type": "Point", "coordinates": [ 113.650047302246094, 34.757034301757812 ] } },
{ "type": "Feature", "properties": { "AREA": 0.0, "PERIMETER": 0.0, "RES1_4M_": 17.0, "RES1_4M_ID": 1207.0, "GBCODE": 31020, "NAME": "武汉", "ADCODE93": 420101, "ADCODE99": 420101, "ADCLASS": 2, "PINYIN": "Wuhan" }, "geometry": { "type": "Point", "coordinates": [ 114.291938781738281, 30.567514419555664 ] } },
{ "type": "Feature", "properties": { "AREA": 0.0, "PERIMETER": 0.0, "RES1_4M_": 18.0, "RES1_4M_ID": 1344.0, "GBCODE": 31020, "NAME": "长沙", "ADCODE93": 430101, "ADCODE99": 430101, "ADCLASS": 2, "PINYIN": "Changsha" }, "geometry": { "type": "Point", "coordinates": [ 112.981269836425781, 28.200824737548828 ] } },
{ "type": "Feature", "properties": { "AREA": 0.0, "PERIMETER": 0.0, "RES1_4M_": 19.0, "RES1_4M_ID": 1403.0, "GBCODE": 31020, "NAME": "广州", "ADCODE93": 440101, "ADCODE99": 440101, "ADCLASS": 2, "PINYIN": "Guangzhou" }, "geometry": { "type": "Point", "coordinates": [ 113.261428833007812, 23.118911743164062 ] } },
{ "type": "Feature", "properties": { "AREA": 0.0, "PERIMETER": 0.0, "RES1_4M_": 20.0, "RES1_4M_ID": 1509.0, "GBCODE": 31020, "NAME": "南宁", "ADCODE93": 450101, "ADCODE99": 450101, "ADCLASS": 2, "PINYIN": "Nanning" }, "geometry": { "type": "Point", "coordinates": [ 108.311767578125, 22.806543350219727 ] } },
{ "type": "Feature", "properties": { "AREA": 0.0, "PERIMETER": 0.0, "RES1_4M_": 21.0, "RES1_4M_ID": 1580.0, "GBCODE": 31020, "NAME": "海口", "ADCODE93": 460100, "ADCODE99": 460100, "ADCLASS": 2, "PINYIN": "Haikou" }, "geometry": { "type": "Point", "coordinates": [ 110.346511840820312, 20.031793594360352 ] } },
{ "type": "Feature", "properties": { "AREA": 0.0, "PERIMETER": 0.0, "RES1_4M_": 22.0, "RES1_4M_ID": 1620.0, "GBCODE": 31020, "NAME": "成都", "ADCODE93": 510101, "ADCODE99": 510101, "ADCLASS": 2, "PINYIN": "Chengdu" }, "geometry": { "type": "Point", "coordinates": [ 104.081756591796875, 30.661056518554688 ] } },
{ "type": "Feature", "properties": { "AREA": 0.0, "PERIMETER": 0.0, "RES1_4M_": 23.0, "RES1_4M_ID": 1622.0, "GBCODE": 31030, "NAME": "重庆", "ADCODE93": 510201, "ADCODE99": 500100, "ADCLASS": 2, "PINYIN": "Chongqing" }, "geometry": { "type": "Point", "coordinates": [ 106.510337829589844, 29.558176040649414 ] } },
{ "type": "Feature", "properties": { "AREA": 0.0, "PERIMETER": 0.0, "RES1_4M_": 24.0, "RES1_4M_ID": 1838.0, "GBCODE": 31020, "NAME": "贵阳", "ADCODE93": 520101, "ADCODE99": 520101, "ADCLASS": 2, "PINYIN": "Guiyang" }, "geometry": { "type": "Point", "coordinates": [ 106.711372375488281, 26.576873779296875 ] } },
{ "type": "Feature", "properties": { "AREA": 0.0, "PERIMETER": 0.0, "RES1_4M_": 25.0, "RES1_4M_ID": 1852.0, "GBCODE": 31020, "NAME": "昆明", "ADCODE93": 530101, "ADCODE99": 530101, "ADCLASS": 2, "PINYIN": "Kunming" }, "geometry": { "type": "Point", "coordinates": [ 102.704566955566406, 25.043844223022461 ] } },
{ "type": "Feature", "properties": { "AREA": 0.0, "PERIMETER": 0.0, "RES1_4M_": 26.0, "RES1_4M_ID": 1972.0, "GBCODE": 31020, "NAME": "拉萨", "ADCODE93": 540101, "ADCODE99": 540101, "ADCLASS": 2, "PINYIN": "Lhasa" }, "geometry": { "type": "Point", "coordinates": [ 91.132049560546875, 29.657588958740234 ] } },
{ "type": "Feature", "properties": { "AREA": 0.0, "PERIMETER": 0.0, "RES1_4M_": 27.0, "RES1_4M_ID": 2041.0, "GBCODE": 31020, "NAME": "西安", "ADCODE93": 610101, "ADCODE99": 610101, "ADCLASS": 2, "PINYIN": "Xi'an" }, "geometry": { "type": "Point", "coordinates": [ 108.949028015136719, 34.261684417724609 ] } },
{ "type": "Feature", "properties": { "AREA": 0.0, "PERIMETER": 0.0, "RES1_4M_": 28.0, "RES1_4M_ID": 2134.0, "GBCODE": 31020, "NAME": "兰州", "ADCODE93": 620101, "ADCODE99": 620101, "ADCLASS": 2, "PINYIN": "Lanzhou" }, "geometry": { "type": "Point", "coordinates": [ 103.750053405761719, 36.068038940429688 ] } },
{ "type": "Feature", "properties": { "AREA": 0.0, "PERIMETER": 0.0, "RES1_4M_": 29.0, "RES1_4M_ID": 2213.0, "GBCODE": 31020, "NAME": "西宁", "ADCODE93": 630100, "ADCODE99": 630100, "ADCLASS": 2, "PINYIN": "Xining" }, "geometry": { "type": "Point", "coordinates": [ 101.787452697753906, 36.609447479248047 ] } },
{ "type": "Feature", "properties": { "AREA": 0.0, "PERIMETER": 0.0, "RES1_4M_": 30.0, "RES1_4M_ID": 2253.0, "GBCODE": 31020, "NAME": "银川", "ADCODE93": 640101, "ADCODE99": 640101, "ADCLASS": 2, "PINYIN": "Yinchuan" }, "geometry": { "type": "Point", "coordinates": [ 106.271942138671875, 38.468009948730469 ] } },
{ "type": "Feature", "properties": { "AREA": 0.0, "PERIMETER": 0.0, "RES1_4M_": 31.0, "RES1_4M_ID": 2274.0, "GBCODE": 31020, "NAME": "乌鲁木齐", "ADCODE93": 650101, "ADCODE99": 650101, "ADCLASS": 2, "PINYIN": "Wulumuqi" }, "geometry": { "type": "Point", "coordinates": [ 87.606117248535156, 43.790939331054688 ] } },
{ "type": "Feature", "properties": { "AREA": 0.0, "PERIMETER": 0.0, "RES1_4M_": 32.0, "RES1_4M_ID": 2358.0, "GBCODE": 31020, "NAME": "台北", "ADCODE93": 710001, "ADCODE99": 710001, "ADCLASS": 2, "PINYIN": "Taipei Shih" }, "geometry": { "type": "Point", "coordinates": [ 121.5142822265625, 25.049127578735352 ] } },
{ "type": "Feature", "properties": { "AREA": 0.0, "PERIMETER": 0.0, "RES1_4M_": 33.0, "RES1_4M_ID": 1384.0, "GBCODE": 31030, "NAME": "澳门", "ADCODE93": 820000, "ADCODE99": 820000, "ADCLASS": 9, "PINYIN": "Macao" }, "geometry": { "type": "Point", "coordinates": [ 113.550056457519531, 22.200796127319336 ] } },
{ "type": "Feature", "properties": { "AREA": 0.0, "PERIMETER": 0.0, "RES1_4M_": 34.0, "RES1_4M_ID": 2377.0, "GBCODE": 31030, "NAME": "香港", "ADCODE93": 810000, "ADCODE99": 810000, "ADCLASS": 9, "PINYIN": "Hong Kong" }, "geometry": { "type": "Point", "coordinates": [ 114.154403686523438, 22.280685424804688 ] } }
]
}
